[
  {
    "norad_id": "49069",
    "name": "LEDSAT",
    "tle1": "1 49069U 21073D   25112.18513209  .00080940  00000+0  12374-2 0  9990\r",
    "tle2": "2 49069  97.3913 191.9332 0011214 244.5173 115.4921 15.54052536203908",
    "transmitters": [
      {
        "description": "Mode U - Beacon GMSK9k6 AX.100",
        "mode": "MSK AX.100 Mode 5",
        "status": "active",
        "uplink": null,
        "downlink": 435190000
      },
      {
        "description": "Mode U/U - Digipeater GMSK1k2 AX.100",
        "mode": "MSK AX.100 Mode 5",
        "status": "active",
        "uplink": 435310000,
        "downlink": 435190000
      }
    ],
    "image": "satellites/ledsat.png",
    "country": "IT"
  },
  {
    "norad_id": "60209",
    "name": "MESAT-1",
    "tle1": "1 60209U 24125G   25111.49355781  .00028114  00000+0  84767-3 0  9993\r",
    "tle2": "2 60209  97.2864 323.7087 0018259 316.8014  43.1795 15.34103942 44428",
    "transmitters": [
      {
        "description": "GlobalStar EyeStar 2M32G1D",
        "mode": "BPSK",
        "status": "active",
        "uplink": null,
        "downlink": 1616250000
      },
      {
        "description": "UHF TLM 1k2 BPSK",
        "mode": "BPSK",
        "status": "active",
        "uplink": null,
        "downlink": 435800000
      },
      {
        "description": "Mode V/U - BPSK1k2 - Transponder",
        "mode": "BPSK",
        "status": "active",
        "uplink": "145910000-145940000",
        "downlink": "435810000-435840000"
      }
    ],
    "image": "satellites/IMG_0571-317x422.jpg",
    "country": "US"
  },
  {
    "norad_id": "43780",
    "name": "MOVE-2",
    "tle1": "1 43780U 18099Y   25112.18693026  .00168226  00000+0  21641-2 0  9995\r",
    "tle2": "2 43780  97.4694 184.7893 0003230 247.0231 113.0684 15.58490530350225",
    "transmitters": [
      {
        "description": "CW Beacon",
        "mode": "CW",
        "status": "active",
        "uplink": null,
        "downlink": 145950000
      },
      {
        "description": "BPSK Telemetry",
        "mode": "BPSK",
        "status": "active",
        "uplink": null,
        "downlink": 145950000
      },
      {
        "description": "BPSK TLM IQ recording usage",
        "mode": "BPSK",
        "status": "active",
        "uplink": null,
        "downlink": 145950000
      }
    ],
    "image": "",
    "country": "DE"
  },
  {
    "norad_id": "26931",
    "name": "NO-44",
    "tle1": "1 26931U 01043C   25111.81588544  .00000486  00000+0  21299-3 0  9995\r",
    "tle2": "2 26931  67.0505 253.9157 0005602 271.3535  88.6925 14.31703523230122",
    "transmitters": [
      {
        "description": "Mode V/V APRS AFSK",
        "mode": "AFSK",
        "status": "active",
        "uplink": 145825000,
        "downlink": 145825000
      },
      {
        "description": "PE0SAT - 1k2 AFSK APRS",
        "mode": "AFSK",
        "status": "active",
        "uplink": null,
        "downlink": 145826800
      },
      {
        "description": "Mode V - R2 Backup APRS 1K2",
        "mode": "AFSK",
        "status": "active",
        "uplink": null,
        "downlink": 144390000
      }
    ],
    "image": "https://db-satnogs.freetls.fastly.net/media/satellites/no44.gif",
    "country": "US"
  },
  {
    "norad_id": "63211",
    "name": "NUSHSat-1",
    "tle1": "1 63211U 25052B   25112.21150162  .00021198  00000+0  10017-2 0  9997\r",
    "tle2": "2 63211  97.4463   6.9708 0006228 121.9052 238.2789 15.19413573  5908",
    "transmitters": [
      {
        "description": "Mode U - Transmitter",
        "mode": "FSK AX.100 Mode 5",
        "status": "active",
        "uplink": null,
        "downlink": 436200000
      }
    ],
    "image": "",
    "country": "SG"
  },
  {
    "norad_id": "60243",
    "name": "ROBUSTA-3A",
    "tle1": "1 60243U 24128J   25111.78456548  .00013593  00000+0  97433-3 0  9998\r",
    "tle2": "2 60243  61.9886 249.2613 0045725  40.1522 320.2933 15.03816717 42882",
    "transmitters": [
      {
        "description": "Mode U - GMSK9k6 - AX.25",
        "mode": "GMSK",
        "status": "active",
        "uplink": null,
        "downlink": 436750000
      },
      {
        "description": "Mode S - Transmitter",
        "mode": "FM",
        "status": "active",
        "uplink": null,
        "downlink": 2202000000
      }
    ],
    "image": "satellites/ROBUSTA-3A.png",
    "country": "FR"
  },
  {
    "norad_id": "27607",
    "name": "SaudiSat-1C",
    "tle1": "1 27607U 02058C   25111.61509133  .00002634  00000+0  34657-3 0  9997\r",
    "tle2": "2 27607  64.5558 351.6627 0050461 345.6582  14.3087 14.81460040201976",
    "transmitters": [
      {
        "description": "Mode V/U FM Voice CTCSS 67.0 Hz",
        "mode": "FM",
        "status": "active",
        "uplink": 145850000,
        "downlink": 436795000
      },
      {
        "description": "Mode V TLM",
        "mode": "FM",
        "status": "active",
        "uplink": null,
        "downlink": 149025000
      }
    ],
    "image": "https://db-satnogs.freetls.fastly.net/media/satellites/saudisat-so-50.jpg",
    "country": "SA"
  },
  {
    "norad_id": "59112",
    "name": "SONATE-2",
    "tle1": "1 59112U 24043Q   25111.33901036  .00024049  00000+0  73546-3 0  9992\r",
    "tle2": "2 59112  97.5056 241.6167 0010401 287.9201  72.0907 15.33802710 62782",
    "transmitters": [
      {
        "description": "Mode V - CW",
        "mode": "CW",
        "status": "active",
        "uplink": null,
        "downlink": 145840000
      },
      {
        "description": "Mode U - GMSK9k6 - AX.25 G3RUH - Telemetry",
        "mode": "GMSK",
        "status": "active",
        "uplink": null,
        "downlink": 437025000
      },
      {
        "description": "Mode V - SSTV - Martin M1 SSTV",
        "mode": "SSTV",
        "status": "active",
        "uplink": null,
        "downlink": 145880000
      },
      {
        "description": "Mode V/V - APRS digipeater",
        "mode": "AFSK",
        "status": "active",
        "uplink": 145825000,
        "downlink": 145825000
      },
      {
        "description": "Mode S - QPSK 2.048 Msps - CCSDS 131.0-B Convolutional code k=7, r=0.5, randomizer on",
        "mode": "QPSK",
        "status": "active",
        "uplink": null,
        "downlink": 2267700000
      }
    ],
    "image": "satellites/sonate-2.png",
    "country": "DE"
  },
  {
    "norad_id": "43804",
    "name": "Suomi-100",
    "tle1": "1 43804U 18099AY  25112.14561311  .00016590  00000+0  83322-3 0  9990\r",
    "tle2": "2 43804  97.4777 171.1140 0011169 321.5951  38.4486 15.17304351349358",
    "transmitters": [
      {
        "description": "GMSK9k6 TLM",
        "mode": "MSK AX.100 Mode 5",
        "status": "active",
        "uplink": null,
        "downlink": 437775000
      }
    ],
    "image": "satellites/suomi1001.png",
    "country": "FI"
  },
  {
    "norad_id": "43188",
    "name": "S-NetA",
    "tle1": "1 43188U 18014J   25111.71123452  .00009029  00000+0  54007-3 0  9991\r",
    "tle2": "2 43188  97.5673  15.2385 0011028  38.6828 321.5190 15.11225811394996",
    "transmitters": [
      {
        "description": "S-Band Downlink",
        "mode": "FM",
        "status": "active",
        "uplink": null,
        "downlink": 2263000000
      },
      {
        "description": "AFSK 1k2 TLM",
        "mode": "AFSK TUBiX10",
        "status": "active",
        "uplink": null,
        "downlink": 435950000
      }
    ],
    "image": "",
    "country": "DE"
  },
  {
    "norad_id": "49396",
    "name": "TeikyoSat-4",
    "tle1": "1 49396U 21102B   25111.69862050  .00003593  00000+0  24119-3 0  9992\r",
    "tle2": "2 49396  97.4161 151.8852 0010902 306.1357  53.8861 15.07387917189184",
    "transmitters": [
      {
        "description": "Mode U - CW Beacon",
        "mode": "CW",
        "status": "active",
        "uplink": null,
        "downlink": 437450000
      },
      {
        "description": "Mode U - AFSK1k2",
        "mode": "AFSK",
        "status": "active",
        "uplink": null,
        "downlink": 437450000
      },
      {
        "description": "Mode U - GMSK9k6",
        "mode": "GMSK",
        "status": "active",
        "uplink": null,
        "downlink": 437450000
      },
      {
        "description": "Mode U - SSTV",
        "mode": "SSTV",
        "status": "active",
        "uplink": null,
        "downlink": 437450000
      },
      {
        "description": "Mode S - FSK115k2",
        "mode": "FSK",
        "status": "active",
        "uplink": null,
        "downlink": 5831000000
      }
    ],
    "image": "satellites/TS4_patch.jpg",
    "country": "JP"
  },
  {
    "norad_id": "63217",
    "name": "TEVEL2-1",
    "tle1": "1 63217U 25052H   25112.15620226  .00021012  00000+0  10069-2 0  9991\r",
    "tle2": "2 63217  97.4350   6.8420 0004849 141.3671 218.7911 15.18934879  5893",
    "transmitters": [],
    "image": "satellites/transit-o__1.jpg",
    "country": "US"
  },
  {
    "norad_id": "63218",
    "name": "TEVEL2-2",
    "tle1": "1 63218U 25052J   25112.15641576  .00022045  00000+0  10563-2 0  9999\r",
    "tle2": "2 63218  97.4343   6.8438 0004822 140.4540 219.7047 15.18928387  5899",
    "transmitters": [],
    "image": "satellites/transit-o__1.jpg",
    "country": "US"
  },
  {
    "norad_id": "63219",
    "name": "TEVEL2-3",
    "tle1": "1 63219U 25052K   25109.65296421  .00022170  00000+0  10653-2 0  9995\r",
    "tle2": "2 63219  97.4354   4.3800 0004507 148.3428 211.8078 15.18830559  5519",
    "transmitters": [],
    "image": "satellites/transit-o__1.jpg",
    "country": "US"
  },
  {
    "norad_id": "63213",
    "name": "TEVEL2-4",
    "tle1": "1 63213U 25052D   25111.22850413  .00021578  00000+0  10279-2 0  9997\r",
    "tle2": "2 63213  97.4382   5.9536 0004797 131.1454 229.0195 15.19136979  5750",
    "transmitters": [],
    "image": "satellites/transit-o__1.jpg",
    "country": "US"
  }
]